STARLINK-31681          
1 59746U 24090S   25289.66444454  .00001746  00000+0  72952-4 0  9995
2 59746  42.9976 269.9287 0000948 287.7071  72.3677 15.27583789 81495
STARLINK-31636          
1 59747U 24090T   25290.24168217 -.00000335  00000+0 -26400-5 0  9995
2 59747  43.0011 273.4390 0001057 272.0261  88.0470 15.27574637 81502
STARLINK-31640          
1 59748U 24090U   25290.25838757 -.00001124  00000+0 -31322-4 0  9995
2 59748  43.0017 273.5582 0000664 284.1721  75.9057 15.27577131 81509
STARLINK-31677          
1 59749U 24090V   25289.03274925  .00002914  00000+0  11535-3 0  9990
2 59749  43.0033 280.7063 0001100 286.6721  73.4010 15.27590763 81301
STARLINK-31783          
1 59750U 24090W   25289.04045370  .00007147  00000+0  26889-3 0  9994
2 59750  42.9987 280.7655 0000897 256.2296 103.8456 15.27592984 81307
STARLINK-31808          
1 59751U 24090X   25290.22368611 -.00002924  00000+0 -96744-4 0  9991
2 59751  42.9996 273.3061 0000815 257.6524 102.4237 15.27592575 81494
STARLINK-31822          
1 59752U 24090Y   25289.65705199  .00003919  00000+0  15184-3 0  9994
2 59752  43.0008 276.7927 0001273 264.7433  95.3273 15.27586392 81407
STARLINK-11118 [DTC]    
1 59754U 24091B   25290.01859959  .00000609  00000+0  98816-5 0  9991
2 59754  53.1595 194.8428 0001037 102.9026 257.2108 15.69713310 82941
STARLINK-11132 [DTC]    
1 59755U 24091C   25289.05375196  .00001598  00000+0  18049-4 0  9997
2 59755  53.1602 199.4876 0001237  90.0953 270.0207 15.69710681 82791
STARLINK-11131 [DTC]    
1 59756U 24091D   25289.17618578  .00002076  00000+0  21983-4 0  9998
2 59756  53.1597 198.8292 0000626  75.6331 284.4757 15.69707793 82812
STARLINK-11114 [DTC]    
1 59757U 24091E   25289.04394622  .00002394  00000+0  24611-4 0  9990
2 59757  53.1595 199.4443 0000746  87.7101 272.4002 15.69703228 82794
STARLINK-11105 [DTC]    
1 59758U 24091F   25289.16638662 -.00000438  00000+0  12474-5 0  9992
2 59758  53.1603 198.7806 0001186  75.8219 284.2931 15.69697766 82811
STARLINK-11097 [DTC]    
1 59759U 24091G   25289.79816581 -.00000710  00000+0 -10012-5 0  9990
2 59759  53.1598 195.5890 0001064  70.8999 289.2134 15.69712097 82914
STARLINK-11098 [DTC]    
1 59760U 24091H   25289.47491866 -.00000223  00000+0  30241-5 0  9996
2 59760  53.1590 197.1272 0001297  85.3270 274.7896 15.69700725 82864
STARLINK-11117 [DTC]    
1 59761U 24091J   25289.47001404  .00001090  00000+0  13853-4 0  9993
2 59761  53.1589 197.0935 0000792 108.2244 251.8861 15.69698851 82867
STARLINK-11110 [DTC]    
1 59762U 24091K   25289.14676336 -.00000095  00000+0  40766-5 0  9999
2 59762  53.1581 198.6308 0001082  70.0921 290.0214 15.69690601 82819
STARLINK-11104 [DTC]    
1 59763U 24091L   25290.03321453 -.00000279  00000+0  25558-5 0  9993
2 59763  53.1596 194.2032 0000896  96.8379 263.2741 15.69715911 82951
STARLINK-11111 [DTC]    
1 59764U 24091M   25290.02340278  .00001677  00000+0  18683-4 0  9991
2 59764  53.1582 194.1374 0000547  91.7469 268.3611 15.69721097 82956
STARLINK-11106 [DTC]    
1 59765U 24091N   25290.02830890  .00001766  00000+0  19429-4 0  9994
2 59765  53.1574 194.1685 0001032  93.3393 266.7743 15.69714012 82954
STARLINK-31739          
1 59766U 24091P   25290.30985282  .00000758  00000+0  37707-4 0  9991
2 59766  53.1604 329.9497 0001264  67.7616 292.3519 15.30192909 81091
STARLINK-31828          
1 59767U 24091Q   25289.41086050  .00000519  00000+0  29642-4 0  9991
2 59767  53.1594 337.1164 0001101  86.9478 273.1649 15.30189456 80915
STARLINK-31826          
1 59768U 24091R   25290.26311876  .00001130  00000+0  50297-4 0  9994
2 59768  53.1610 333.2006 0001282  87.8752 272.2395 15.30188451 81049
STARLINK-31830          
1 59769U 24091S   25290.26627300  .00001462  00000+0  61463-4 0  9992
2 59769  53.1602 333.2134 0001226  91.3237 268.7904 15.30202161 81040
STARLINK-31829          
1 59770U 24091T   25289.40769198  .00013417  00000+0  46456-3 0  9997
2 59770  53.1602 337.1047 0001227  87.8600 272.2542 15.30182716 80919
STARLINK-31786          
1 59771U 24091U   25290.27049727 -.00000428  00000+0 -23132-5 0  9992
2 59771  53.1595 333.2408 0001153  86.5924 273.5209 15.30203407 81042
STARLINK-31835          
1 59772U 24091V   25289.40452661  .00001346  00000+0  57597-4 0  9990
2 59772  53.1617 337.0777 0001637  90.7813 269.3376 15.30188162 80913
STARLINK-31363          
1 59782U 24093A   25290.30829091  .00002252  00000+0  91369-4 0  9991
2 59782  43.0001 295.4324 0001302 267.7200  92.3503 15.27569303 80809
STARLINK-31868          
1 59783U 24093B   25290.30956426  .00000123  00000+0  13973-4 0  9995
2 59783  43.0032 295.4046 0000844 265.8403  94.2352 15.27581843 80805
STARLINK-31848          
1 59784U 24093C   25289.30307832  .00002639  00000+0  10535-3 0  9999
2 59784  43.0014 300.8377 0001855 270.7794  89.2845 15.27594964 80657
STARLINK-31890          
1 59785U 24093D   25290.28773671  .00003697  00000+0  14378-3 0  9991
2 59785  43.0021 295.3210 0002307 270.6268  89.4319 15.27582151 80808
STARLINK-31862          
1 59786U 24093E   25290.32565499 -.00000851  00000+0 -21434-4 0  9997
2 59786  43.0060 298.2078 0000375 263.9807  96.1002 15.27577847 80779
STARLINK-31870          
1 59787U 24093F   25289.34100248  .00005512  00000+0  20975-3 0  9990
2 59787  43.0022 303.7165 0000850 262.3290  97.7465 15.27567598 80620
STARLINK-31888          
1 59788U 24093G   25289.35127282  .00001556  00000+0  66035-4 0  9991
2 59788  42.9997 303.7922 0000824 265.9208  94.1549 15.27581653 80622
STARLINK-31863          
1 59789U 24093H   25289.34870573  .00000857  00000+0  40658-4 0  9995
2 59789  42.9975 303.7734 0000853 304.1451  55.9319 15.27583343 80626
STARLINK-31873          
1 59790U 24093J   25289.09745010  .00006518  00000+0  24609-3 0  9993
2 59790  42.9960 305.3303 0000574 289.9715  70.1075 15.27587762 80587
STARLINK-31865          
1 59791U 24093K   25289.03591714 -.00002925  00000+0 -96833-4 0  9997
2 59791  43.0041 305.7276 0001282 274.2901  85.7804 15.27567066 80570
STARLINK-31823          
1 59794U 24093N   25289.10515766  .00000847  00000+0  40296-4 0  9992
2 59794  43.0030 305.3873 0001205 265.7799  94.2915 15.27589947 80586
STARLINK-31916          
1 59795U 24093P   25289.89364284  .00000153  00000+0  15080-4 0  9999
2 59795  43.0026 300.9842 0001107 251.3178 108.7553 15.27586515 80703
STARLINK-31907          
1 59797U 24093R   25288.78464759  .00001456  00000+0  62408-4 0  9999
2 59797  43.0029 307.2827 0001543 253.6804 106.3878 15.27584536 80532
STARLINK-31687          
1 59798U 24093S   25289.33343389  .00002725  00000+0  10851-3 0  9991
2 59798  43.0014 304.5178 0001484 273.4952  86.5730 15.27585571 80619
STARLINK-31810          
1 59799U 24093T   25289.31930074  .00003074  00000+0  12119-3 0  9990
2 59799  43.0032 304.4147 0001500 266.0927  93.9754 15.27583642 80619
STARLINK-31812          
1 59800U 24093U   25290.29238937  .00000898  00000+0  42168-4 0  9990
2 59800  43.0035 298.8205 0001533 283.9163  76.1518 15.27585819 80835
STARLINK-31815          
1 59801U 24093V   25290.29624823 -.00000088  00000+0  63265-5 0  9998
2 59801  43.0002 298.8447 0001270 267.4592  92.6114 15.27574599 80769
STARLINK-31814          
1 59802U 24093W   25289.33728950 -.00003902  00000+0 -13235-3 0  9997
2 59802  42.9984 304.5302 0000250 312.2248  47.8582 15.27586178 80617
STARLINK-31794          
1 59803U 24093X   25290.30781252  .00000513  00000+0  28171-4 0  9990
2 59803  43.0004 298.9315 0000961 268.8421  91.2321 15.27577002 80835
STARLINK-31824          
1 59804U 24093Y   25290.30395295  .00000808  00000+0  38878-4 0  9991
2 59804  43.0021 298.9027 0001352 267.8541  92.2155 15.27582603 80763
STARLINK-31947          
1 59835U 24097A   25290.25981950  .00000968  00000+0  44699-4 0  9997
2 59835  43.0042   4.1562 0001129 235.8991 124.1753 15.27585294 79987
STARLINK-31929          
1 59836U 24097B   25288.27267977 -.00000444  00000+0 -65999-5 0  9991
2 59836  43.0049  15.9026 0001147 264.3336  95.7385 15.27569485 79674
STARLINK-31927          
1 59837U 24097C   25290.27781604 -.00000285  00000+0 -81322-6 0  9995
2 59837  43.0039   4.2935 0001877 275.8725  84.1913 15.27578043 79986
STARLINK-31855          
1 59838U 24097D   25289.20977539  .00029708  00000+0  10833-2 0  9995
2 59838  42.9954  10.0272 0000398  80.1065 279.9831 15.27621936 79827
STARLINK-31887          
1 59839U 24097E   25289.51887065  .00008514  00000+0  31848-3 0  9996
2 59839  43.0051   8.9134 0001493 262.8694  97.1988 15.27589737 79864
STARLINK-31925          
1 59840U 24097F   25290.33336806  .00126866  00000+0  34428-2 0  9999
2 59840  43.0059   1.9847 0007709  37.8040  22.0835 15.36401502  5881
STARLINK-31852          
1 59841U 24097G   25290.21596542  .00000103  00000+0  13251-4 0  9990
2 59841  43.0003 357.7591 0000399 254.3583 105.7224 15.27574381 80054
STARLINK-31906          
1 59842U 24097H   25289.50088470  .00004873  00000+0  18643-3 0  9994
2 59842  42.9997   8.7821 0001013 256.4116 103.6623 15.27587308 79863
STARLINK-31857          
1 59843U 24097J   25290.24953658 -.00000308  00000+0 -16874-5 0  9994
2 59843  42.9986   4.0712 0001159 275.5543  84.5177 15.27575004 79981
STARLINK-31851          
1 59844U 24097K   25290.19828690  .00001853  00000+0  76853-4 0  9992
2 59844  43.0055   4.5546 0001362 259.2698 100.8000 15.27570934 79970
STARLINK-31903          
1 59845U 24097L   25290.20568170  .00006147  00000+0  23292-3 0  9998
2 59845  43.0040 357.6790 0004009 274.8149  85.2245 15.27547236 80050
STARLINK-31922          
1 59846U 24097M   25290.25339442  .00005753  00000+0  21855-3 0  9997
2 59846  43.0064   4.0989 0001539 261.3224  98.7453 15.27560490 79987
STARLINK-31889          
1 59847U 24097N   25290.24325956  .00000923  00000+0  43059-4 0  9997
2 59847  43.0011   4.8940 0002375 285.3970  74.6619 15.27583026 79974
